{
  "type": "FeatureCollection",
  "features": [
    {
      "type": "Feature",
      "properties": {
        "norad_id": 31097,
        "name": "FENGYUN 1C DEB",
        "group": "fengyun-1c-debris",
        "lat": 31.458452104627973,
        "lon": 100.55397554907721,
        "alt_km": 737.8376105211728,
        "timestamp": "2025-12-09T09:46:47.926472+00:00",
        "meta_object_name": "FENGYUN 1C DEB",
        "meta_object_id": "1999-025BGT",
        "meta_epoch": "2025-12-07T20:09:25.877376",
        "meta_mean_motion": 14.46841701,
        "meta_eccentricity": 0.00148051,
        "meta_inclination": 98.8598,
        "meta_ra_of_asc_node": 104.3909,
        "meta_arg_of_pericenter": 285.2714,
        "meta_mean_anomaly": 225.9611,
        "meta_ephemeris_type": 0,
        "meta_classification_type": "U",
        "meta_norad_cat_id": 31097,
        "meta_element_set_no": 999,
        "meta_rev_at_epoch": 96967,
        "meta_bstar": 0.0047024145,
        "meta_mean_motion_dot": 0.00017064,
        "meta_mean_motion_ddot": 0,
        "tle_line1": "1 31097U 99025BGT 25341.83988284  .00017064  00000+0  47024-2 0  9996",
        "tle_line2": "2 31097  98.8598 104.3909 0014805 285.2714 225.9611 14.46841701969671"
      },
      "geometry": {
        "type": "Point",
        "coordinates": [
          100.55397554907721,
          31.458452104627973
        ]
      }
    },
    {
      "type": "Feature",
      "properties": {
        "norad_id": 31098,
        "name": "FENGYUN 1C DEB",
        "group": "fengyun-1c-debris",
        "lat": -25.16925032005452,
        "lon": -83.03288316291909,
        "alt_km": 720.4614217947556,
        "timestamp": "2025-12-09T09:46:47.926482+00:00",
        "meta_object_name": "FENGYUN 1C DEB",
        "meta_object_id": "1999-025BGU",
        "meta_epoch": "2025-12-08T19:35:55.473792",
        "meta_mean_motion": 14.51362326,
        "meta_eccentricity": 0.0014562,
        "meta_inclination": 98.8694,
        "meta_ra_of_asc_node": 100.5521,
        "meta_arg_of_pericenter": 260.1691,
        "meta_mean_anomaly": 99.7859,
        "meta_ephemeris_type": 0,
        "meta_classification_type": "U",
        "meta_norad_cat_id": 31098,
        "meta_element_set_no": 999,
        "meta_rev_at_epoch": 96900,
        "meta_bstar": 0.0054318307,
        "meta_mean_motion_dot": 0.00021697,
        "meta_mean_motion_ddot": 0,
        "tle_line1": "1 31098U 99025BGU 25342.81661428  .00021697  00000+0  54318-2 0  9995",
        "tle_line2": "2 31098  98.8694 100.5521 0014562 260.1691  99.7859 14.51362326969008"
      },
      "geometry": {
        "type": "Point",
        "coordinates": [
          -83.03288316291909,
          -25.16925032005452
        ]
      }
    },
    {
      "type": "Feature",
      "properties": {
        "norad_id": 31099,
        "name": "FENGYUN 1C DEB",
        "group": "fengyun-1c-debris",
        "lat": -45.1528274619067,
        "lon": -115.08659890986537,
        "alt_km": 763.8583878695435,
        "timestamp": "2025-12-09T09:46:47.926492+00:00",
        "meta_object_name": "FENGYUN 1C DEB",
        "meta_object_id": "1999-025BGV",
        "meta_epoch": "2025-12-08T15:38:03.350688",
        "meta_mean_motion": 14.27913057,
        "meta_eccentricity": 0.00627764,
        "meta_inclination": 98.9384,
        "meta_ra_of_asc_node": 235.0361,
        "meta_arg_of_pericenter": 293.4481,
        "meta_mean_anomaly": 96.1072,
        "meta_ephemeris_type": 0,
        "meta_classification_type": "U",
        "meta_norad_cat_id": 31099,
        "meta_element_set_no": 999,
        "meta_rev_at_epoch": 97413,
        "meta_bstar": 0.00060689987,
        "meta_mean_motion_dot": 1.488e-05,
        "meta_mean_motion_ddot": 0,
        "tle_line1": "1 31099U 99025BGV 25342.65142767  .00001488  00000+0  60690-3 0  9995",
        "tle_line2": "2 31099  98.9384 235.0361 0062776 293.4481  96.1072 14.27913057974132"
      },
      "geometry": {
        "type": "Point",
        "coordinates": [
          -115.08659890986537,
          -45.1528274619067
        ]
      }
    },
    {
      "type": "Feature",
      "properties": {
        "norad_id": 31146,
        "name": "FENGYUN 1C DEB",
        "group": "fengyun-1c-debris",
        "lat": 3.7047134877428407,
        "lon": 94.64710363783657,
        "alt_km": 649.3643403702117,
        "timestamp": "2025-12-09T09:46:47.926503+00:00",
        "meta_object_name": "FENGYUN 1C DEB",
        "meta_object_id": "1999-025BGY",
        "meta_epoch": "2025-12-08T06:02:45.087072",
        "meta_mean_motion": 14.27691051,
        "meta_eccentricity": 0.02124416,
        "meta_inclination": 99.0411,
        "meta_ra_of_asc_node": 272.8603,
        "meta_arg_of_pericenter": 180.0267,
        "meta_mean_anomaly": 180.0938,
        "meta_ephemeris_type": 0,
        "meta_classification_type": "U",
        "meta_norad_cat_id": 31146,
        "meta_element_set_no": 999,
        "meta_rev_at_epoch": 96701,
        "meta_bstar": 0.00063803072,
        "meta_mean_motion_dot": 1.949e-05,
        "meta_mean_motion_ddot": 0,
        "tle_line1": "1 31146U 99025BGY 25342.25191073  .00001949  00000+0  63803-3 0  9999",
        "tle_line2": "2 31146  99.0411 272.8603 0212441 180.0267 180.0938 14.27691051967015"
      },
      "geometry": {
        "type": "Point",
        "coordinates": [
          94.64710363783657,
          3.7047134877428407
        ]
      }
    },
    {
      "type": "Feature",
      "properties": {
        "norad_id": 31148,
        "name": "FENGYUN 1C DEB",
        "group": "fengyun-1c-debris",
        "lat": 20.7085065941911,
        "lon": 52.21945080181668,
        "alt_km": 760.4691990404272,
        "timestamp": "2025-12-09T09:46:47.926514+00:00",
        "meta_object_name": "FENGYUN 1C DEB",
        "meta_object_id": "1999-025BHA",
        "meta_epoch": "2025-12-08T03:06:41.549184",
        "meta_mean_motion": 14.43314614,
        "meta_eccentricity": 0.01367025,
        "meta_inclination": 98.8651,
        "meta_ra_of_asc_node": 227.5072,
        "meta_arg_of_pericenter": 64.2685,
        "meta_mean_anomaly": 297.2543,
        "meta_ephemeris_type": 0,
        "meta_classification_type": "U",
        "meta_norad_cat_id": 31148,
        "meta_element_set_no": 999,
        "meta_rev_at_epoch": 97464,
        "meta_bstar": 0.0010937869,
        "meta_mean_motion_dot": 4.078e-05,
        "meta_mean_motion_ddot": 0,
        "tle_line1": "1 31148U 99025BHA 25342.12964756  .00004078  00000+0  10938-2 0  9999",
        "tle_line2": "2 31148  98.8651 227.5072 0136702  64.2685 297.2543 14.43314614974644"
      },
      "geometry": {
        "type": "Point",
        "coordinates": [
          52.21945080181668,
          20.7085065941911
        ]
      }
    },
    {
      "type": "Feature",
      "properties": {
        "norad_id": 31150,
        "name": "FENGYUN 1C DEB",
        "group": "fengyun-1c-debris",
        "lat": -79.15913238374279,
        "lon": 45.12845983704326,
        "alt_km": 860.6516306184712,
        "timestamp": "2025-12-09T09:46:47.926524+00:00",
        "meta_object_name": "FENGYUN 1C DEB",
        "meta_object_id": "1999-025BHC",
        "meta_epoch": "2025-12-08T00:27:01.581120",
        "meta_mean_motion": 14.12728854,
        "meta_eccentricity": 0.0015014,
        "meta_inclination": 98.6859,
        "meta_ra_of_asc_node": 350.8176,
        "meta_arg_of_pericenter": 172.7754,
        "meta_mean_anomaly": 244.6918,
        "meta_ephemeris_type": 0,
        "meta_classification_type": "U",
        "meta_norad_cat_id": 31150,
        "meta_element_set_no": 999,
        "meta_rev_at_epoch": 96230,
        "meta_bstar": 0.00022735699,
        "meta_mean_motion_dot": 3.8e-06,
        "meta_mean_motion_ddot": 0,
        "tle_line1": "1 31150U 99025BHC 25342.01876830  .00000380  00000+0  22736-3 0  9997",
        "tle_line2": "2 31150  98.6859 350.8176 0015014 172.7754 244.6918 14.12728854962307"
      },
      "geometry": {
        "type": "Point",
        "coordinates": [
          45.12845983704326,
          -79.15913238374279
        ]
      }
    },
    {
      "type": "Feature",
      "properties": {
        "norad_id": 31151,
        "name": "FENGYUN 1C DEB",
        "group": "fengyun-1c-debris",
        "lat": -76.33377320165313,
        "lon": 30.135978042764417,
        "alt_km": 829.8161507981349,
        "timestamp": "2025-12-09T09:46:47.926534+00:00",
        "meta_object_name": "FENGYUN 1C DEB",
        "meta_object_id": "1999-025BHD",
        "meta_epoch": "2025-12-06T11:24:46.806336",
        "meta_mean_motion": 14.25703882,
        "meta_eccentricity": 0.00567481,
        "meta_inclination": 99.135,
        "meta_ra_of_asc_node": 345.649,
        "meta_arg_of_pericenter": 42.9593,
        "meta_mean_anomaly": 317.5996,
        "meta_ephemeris_type": 0,
        "meta_classification_type": "U",
        "meta_norad_cat_id": 31151,
        "meta_element_set_no": 999,
        "meta_rev_at_epoch": 95885,
        "meta_bstar": 0.0040904235,
        "meta_mean_motion_dot": 9.836e-05,
        "meta_mean_motion_ddot": 0,
        "tle_line1": "1 31151U 99025BHD 25340.47554174  .00009836  00000+0  40904-2 0  9991",
        "tle_line2": "2 31151  99.1350 345.6490 0056748  42.9593 317.5996 14.25703882958858"
      },
      "geometry": {
        "type": "Point",
        "coordinates": [
          30.135978042764417,
          -76.33377320165313
        ]
      }
    }
  ]
}